STARLINK-36124          
1 67121U 25299V   25355.25001157 -.01478712  64699-3 -33742-2 0  9995
2 67121  42.9996 264.7625 0002383 275.5555  71.0883 15.96582022  2188
STARLINK-36188          
1 67122U 25299W   25355.25001157 -.01480288  64869-3 -33659-2 0  9993
2 67122  42.9996 264.7597 0002376 274.5816  73.2289 15.96646246  2181
STARLINK-36151          
1 67123U 25299X   25355.25001157 -.01458408  63015-3 -33447-2 0  9990
2 67123  42.9997 264.7663 0002417 274.9202  70.2751 15.96486712  2187
STARLINK-36195          
1 67124U 25299Y   25355.25001157 -.01485987  65386-3 -33632-2 0  9992
2 67124  42.9998 264.7564 0002392 275.1006  74.0313 15.96731548  2182
STARLINK-36219          
1 67125U 25299Z   25355.25001157 -.01481356  65058-3 -33400-2 0  9998
2 67125  42.9995 264.7530 0002388 275.5386  74.8224 15.96799792  2187
STARLINK-36223          
1 67126U 25299AA  25355.25001157 -.01499737  66619-3 -33631-2 0  9991
2 67126  42.9996 264.7492 0002362 274.0006  77.8817 15.96901364  2182
STARLINK-36164          
1 67127U 25299AB  25355.25001157 -.01499530  66656-3 -33480-2 0  9996
2 67127  42.9996 264.7458 0002396 276.1944  77.0382 15.96980191  2180
STARLINK-35685          
1 67128U 25299AC  25355.25001157 -.01412049  59759-3 -31312-2 0  9995
2 67128  42.9993 264.7353 0002404 273.6019  83.7613 15.97090535  2183
STARLINK-36214          
1 67129U 25299AD  25355.25001157 -.01514942  67996-3 -33629-2 0  9996
2 67129  42.9995 264.7415 0002384 274.3231  80.5252 15.97087219  2185
STARLINK-36194          
1 67130U 25299AE  25355.25001157 -.01437447  61831-3 -31646-2 0  9991
2 67130  42.9993 264.7240 0002409 274.4669  88.0506 15.97224310  2185
ZIYUAN 3-04 (ZY 3-04)   
1 67131U 25300A   25354.71318481  .00001218  00000+0  57804-4 0  9999
2 67131  97.4922  68.7821 0002631 170.9388 189.1895 15.21170552   700
CZ-4B R/B               
1 67132U 25300B   25352.67574779  .00040543  26530-5  19566-3 0  9995
2 67132  97.5563  66.9660 0174197   9.3582 351.0851 15.63831828   407
