CCSDS_OMM_VERS = 2.0
CREATION_DATE  = 
ORIGINATOR     = 

OBJECT_NAME    = STARLINK-36124
OBJECT_ID      = 2025-299V
CENTER_NAME    = EARTH
REF_FRAME      = TEME
TIME_SYSTEM    = UTC
MEAN_ELEMENT_THEORY = SGP/SGP4

EPOCH          = 2025-12-21T06:00:00.999648
MEAN_MOTION    = 15.96582022
ECCENTRICITY   = .00023836
INCLINATION    = 42.9996
RA_OF_ASC_NODE = 264.7625
ARG_OF_PERICENTER = 275.5555
MEAN_ANOMALY   = 71.0883

EPHEMERIS_TYPE = 0
CLASSIFICATION_TYPE = U
NORAD_CAT_ID   = 67121
ELEMENT_SET_NO = 999
REV_AT_EPOCH   = 218
BSTAR          = -.33741749E-2
MEAN_MOTION_DOT = -.1478712E-1
MEAN_MOTION_DDOT = .64699132E-3

CCSDS_OMM_VERS = 2.0
CREATION_DATE  = 
ORIGINATOR     = 

OBJECT_NAME    = STARLINK-36188
OBJECT_ID      = 2025-299W
CENTER_NAME    = EARTH
REF_FRAME      = TEME
TIME_SYSTEM    = UTC
MEAN_ELEMENT_THEORY = SGP/SGP4

EPOCH          = 2025-12-21T06:00:00.999648
MEAN_MOTION    = 15.96646246
ECCENTRICITY   = .00023766
INCLINATION    = 42.9996
RA_OF_ASC_NODE = 264.7597
ARG_OF_PERICENTER = 274.5816
MEAN_ANOMALY   = 73.2289

EPHEMERIS_TYPE = 0
CLASSIFICATION_TYPE = U
NORAD_CAT_ID   = 67122
ELEMENT_SET_NO = 999
REV_AT_EPOCH   = 218
BSTAR          = -.33659143E-2
MEAN_MOTION_DOT = -.1480288E-1
MEAN_MOTION_DDOT = .64868747E-3

CCSDS_OMM_VERS = 2.0
CREATION_DATE  = 
ORIGINATOR     = 

OBJECT_NAME    = STARLINK-36151
OBJECT_ID      = 2025-299X
CENTER_NAME    = EARTH
REF_FRAME      = TEME
TIME_SYSTEM    = UTC
MEAN_ELEMENT_THEORY = SGP/SGP4

EPOCH          = 2025-12-21T06:00:00.999648
MEAN_MOTION    = 15.96486712
ECCENTRICITY   = .00024179
INCLINATION    = 42.9997
RA_OF_ASC_NODE = 264.7663
ARG_OF_PERICENTER = 274.9202
MEAN_ANOMALY   = 70.2751

EPHEMERIS_TYPE = 0
CLASSIFICATION_TYPE = U
NORAD_CAT_ID   = 67123
ELEMENT_SET_NO = 999
REV_AT_EPOCH   = 218
BSTAR          = -.33447118E-2
MEAN_MOTION_DOT = -.1458408E-1
MEAN_MOTION_DDOT = .63015368E-3

CCSDS_OMM_VERS = 2.0
CREATION_DATE  = 
ORIGINATOR     = 

OBJECT_NAME    = STARLINK-36195
OBJECT_ID      = 2025-299Y
CENTER_NAME    = EARTH
REF_FRAME      = TEME
TIME_SYSTEM    = UTC
MEAN_ELEMENT_THEORY = SGP/SGP4

EPOCH          = 2025-12-21T06:00:00.999648
MEAN_MOTION    = 15.96731548
ECCENTRICITY   = .0002392
INCLINATION    = 42.9998
RA_OF_ASC_NODE = 264.7564
ARG_OF_PERICENTER = 275.1006
MEAN_ANOMALY   = 74.0313

EPHEMERIS_TYPE = 0
CLASSIFICATION_TYPE = U
NORAD_CAT_ID   = 67124
ELEMENT_SET_NO = 999
REV_AT_EPOCH   = 218
BSTAR          = -.3363195E-2
MEAN_MOTION_DOT = -.1485987E-1
MEAN_MOTION_DDOT = .65385726E-3

CCSDS_OMM_VERS = 2.0
CREATION_DATE  = 
ORIGINATOR     = 

OBJECT_NAME    = STARLINK-36219
OBJECT_ID      = 2025-299Z
CENTER_NAME    = EARTH
REF_FRAME      = TEME
TIME_SYSTEM    = UTC
MEAN_ELEMENT_THEORY = SGP/SGP4

EPOCH          = 2025-12-21T06:00:00.999648
MEAN_MOTION    = 15.96799792
ECCENTRICITY   = .00023883
INCLINATION    = 42.9995
RA_OF_ASC_NODE = 264.7530
ARG_OF_PERICENTER = 275.5386
MEAN_ANOMALY   = 74.8224

EPHEMERIS_TYPE = 0
CLASSIFICATION_TYPE = U
NORAD_CAT_ID   = 67125
ELEMENT_SET_NO = 999
REV_AT_EPOCH   = 218
BSTAR          = -.33400051E-2
MEAN_MOTION_DOT = -.1481356E-1
MEAN_MOTION_DDOT = .65057592E-3

CCSDS_OMM_VERS = 2.0
CREATION_DATE  = 
ORIGINATOR     = 

OBJECT_NAME    = STARLINK-36223
OBJECT_ID      = 2025-299AA
CENTER_NAME    = EARTH
REF_FRAME      = TEME
TIME_SYSTEM    = UTC
MEAN_ELEMENT_THEORY = SGP/SGP4

EPOCH          = 2025-12-21T06:00:00.999648
MEAN_MOTION    = 15.96901364
ECCENTRICITY   = .0002362
INCLINATION    = 42.9996
RA_OF_ASC_NODE = 264.7492
ARG_OF_PERICENTER = 274.0006
MEAN_ANOMALY   = 77.8817

EPHEMERIS_TYPE = 0
CLASSIFICATION_TYPE = U
NORAD_CAT_ID   = 67126
ELEMENT_SET_NO = 999
REV_AT_EPOCH   = 218
BSTAR          = -.33631036E-2
MEAN_MOTION_DOT = -.1499737E-1
MEAN_MOTION_DDOT = .66618644E-3

CCSDS_OMM_VERS = 2.0
CREATION_DATE  = 
ORIGINATOR     = 

OBJECT_NAME    = STARLINK-36164
OBJECT_ID      = 2025-299AB
CENTER_NAME    = EARTH
REF_FRAME      = TEME
TIME_SYSTEM    = UTC
MEAN_ELEMENT_THEORY = SGP/SGP4

EPOCH          = 2025-12-21T06:00:00.999648
MEAN_MOTION    = 15.96980191
ECCENTRICITY   = .0002396
INCLINATION    = 42.9996
RA_OF_ASC_NODE = 264.7458
ARG_OF_PERICENTER = 276.1944
MEAN_ANOMALY   = 77.0382

EPHEMERIS_TYPE = 0
CLASSIFICATION_TYPE = U
NORAD_CAT_ID   = 67127
ELEMENT_SET_NO = 999
REV_AT_EPOCH   = 218
BSTAR          = -.33480015E-2
MEAN_MOTION_DOT = -.149953E-1
MEAN_MOTION_DDOT = .66656005E-3

CCSDS_OMM_VERS = 2.0
CREATION_DATE  = 
ORIGINATOR     = 

OBJECT_NAME    = STARLINK-35685
OBJECT_ID      = 2025-299AC
CENTER_NAME    = EARTH
REF_FRAME      = TEME
TIME_SYSTEM    = UTC
MEAN_ELEMENT_THEORY = SGP/SGP4

EPOCH          = 2025-12-21T06:00:00.999648
MEAN_MOTION    = 15.97090535
ECCENTRICITY   = .00024048
INCLINATION    = 42.9993
RA_OF_ASC_NODE = 264.7353
ARG_OF_PERICENTER = 273.6019
MEAN_ANOMALY   = 83.7613

EPHEMERIS_TYPE = 0
CLASSIFICATION_TYPE = U
NORAD_CAT_ID   = 67128
ELEMENT_SET_NO = 999
REV_AT_EPOCH   = 218
BSTAR          = -.3131159E-2
MEAN_MOTION_DOT = -.1412049E-1
MEAN_MOTION_DDOT = .59758538E-3

CCSDS_OMM_VERS = 2.0
CREATION_DATE  = 
ORIGINATOR     = 

OBJECT_NAME    = STARLINK-36214
OBJECT_ID      = 2025-299AD
CENTER_NAME    = EARTH
REF_FRAME      = TEME
TIME_SYSTEM    = UTC
MEAN_ELEMENT_THEORY = SGP/SGP4

EPOCH          = 2025-12-21T06:00:00.999648
MEAN_MOTION    = 15.97087219
ECCENTRICITY   = .00023844
INCLINATION    = 42.9995
RA_OF_ASC_NODE = 264.7415
ARG_OF_PERICENTER = 274.3231
MEAN_ANOMALY   = 80.5252

EPHEMERIS_TYPE = 0
CLASSIFICATION_TYPE = U
NORAD_CAT_ID   = 67129
ELEMENT_SET_NO = 999
REV_AT_EPOCH   = 218
BSTAR          = -.33629062E-2
MEAN_MOTION_DOT = -.1514942E-1
MEAN_MOTION_DDOT = .67996472E-3

CCSDS_OMM_VERS = 2.0
CREATION_DATE  = 
ORIGINATOR     = 

OBJECT_NAME    = STARLINK-36194
OBJECT_ID      = 2025-299AE
CENTER_NAME    = EARTH
REF_FRAME      = TEME
TIME_SYSTEM    = UTC
MEAN_ELEMENT_THEORY = SGP/SGP4

EPOCH          = 2025-12-21T06:00:00.999648
MEAN_MOTION    = 15.97224310
ECCENTRICITY   = .00024093
INCLINATION    = 42.9993
RA_OF_ASC_NODE = 264.7240
ARG_OF_PERICENTER = 274.4669
MEAN_ANOMALY   = 88.0506

EPHEMERIS_TYPE = 0
CLASSIFICATION_TYPE = U
NORAD_CAT_ID   = 67130
ELEMENT_SET_NO = 999
REV_AT_EPOCH   = 218
BSTAR          = -.31646489E-2
MEAN_MOTION_DOT = -.1437447E-1
MEAN_MOTION_DDOT = .61831072E-3

CCSDS_OMM_VERS = 2.0
CREATION_DATE  = 
ORIGINATOR     = 

OBJECT_NAME    = ZIYUAN 3-04 (ZY 3-04)
OBJECT_ID      = 2025-300A
CENTER_NAME    = EARTH
REF_FRAME      = TEME
TIME_SYSTEM    = UTC
MEAN_ELEMENT_THEORY = SGP/SGP4

EPOCH          = 2025-12-20T17:06:59.167584
MEAN_MOTION    = 15.21170552
ECCENTRICITY   = .00026316
INCLINATION    = 97.4922
RA_OF_ASC_NODE = 68.7821
ARG_OF_PERICENTER = 170.9388
MEAN_ANOMALY   = 189.1895

EPHEMERIS_TYPE = 0
CLASSIFICATION_TYPE = U
NORAD_CAT_ID   = 67131
ELEMENT_SET_NO = 999
REV_AT_EPOCH   = 70
BSTAR          = .57804353E-4
MEAN_MOTION_DOT = .1218E-4
MEAN_MOTION_DDOT = 0

CCSDS_OMM_VERS = 2.0
CREATION_DATE  = 
ORIGINATOR     = 

OBJECT_NAME    = CZ-4B R/B
OBJECT_ID      = 2025-300B
CENTER_NAME    = EARTH
REF_FRAME      = TEME
TIME_SYSTEM    = UTC
MEAN_ELEMENT_THEORY = SGP/SGP4

EPOCH          = 2025-12-18T16:13:04.609056
MEAN_MOTION    = 15.63831828
ECCENTRICITY   = .01741973
INCLINATION    = 97.5563
RA_OF_ASC_NODE = 66.9660
ARG_OF_PERICENTER = 9.3582
MEAN_ANOMALY   = 351.0851

EPHEMERIS_TYPE = 0
CLASSIFICATION_TYPE = U
NORAD_CAT_ID   = 67132
ELEMENT_SET_NO = 999
REV_AT_EPOCH   = 40
BSTAR          = .19566238E-3
MEAN_MOTION_DOT = .40543E-3
MEAN_MOTION_DDOT = .2652968E-5

